{
    "links": {
        "self": "http://www.neowsapp.com/rest/v1/neo/3477706?api_key=iIulBulltgU6a56xZRHN4H3l9WmuAYTsLGpBGhQ2"
    },
    "id": "3477706",
    "neo_reference_id": "3477706",
    "name": "(2009 WD7)",
    "designation": "2009 WD7",
    "nasa_jpl_url": "http://ssd.jpl.nasa.gov/sbdb.cgi?sstr=3477706",
    "absolute_magnitude_h": 25.7,
    "estimated_diameter": {
        "kilometers": {
            "estimated_diameter_min": 0.0192555078,
            "estimated_diameter_max": 0.0430566244
        },
        "meters": {
            "estimated_diameter_min": 19.2555078188,
            "estimated_diameter_max": 43.0566244241
        },
        "miles": {
            "estimated_diameter_min": 0.0119648141,
            "estimated_diameter_max": 0.0267541378
        },
        "feet": {
            "estimated_diameter_min": 63.1742402722,
            "estimated_diameter_max": 141.2618956756
        }
    },
    "is_potentially_hazardous_asteroid": false,
    "close_approach_data": [
        {
            "close_approach_date": "2009-11-07",
            "close_approach_date_full": "2009-Nov-07 05:20",
            "epoch_date_close_approach": 1257571200000,
            "relative_velocity": {
                "kilometers_per_second": "9.6630883502",
                "kilometers_per_hour": "34787.1180608071",
                "miles_per_hour": "21615.3623306165"
            },
            "miss_distance": {
                "astronomical": "0.0388977837",
                "lunar": "15.1312378593",
                "kilometers": "5819025.589240719",
                "miles": "3615774.8354471622"
            },
            "orbiting_body": "Earth"
        }
    ],
    "orbital_data": {
        "orbit_id": "9",
        "orbit_determination_date": "2017-04-06 08:59:06",
        "first_observation_date": "2009-11-19",
        "last_observation_date": "2009-11-23",
        "data_arc_in_days": 4,
        "observations_used": 24,
        "orbit_uncertainty": "9",
        "minimum_orbit_intersection": ".0162639",
        "jupiter_tisserand_invariant": "3.253",
        "epoch_osculation": "2455156.5",
        "eccentricity": ".5928217306498818",
        "semi_major_axis": "2.413058812803007",
        "inclination": "1.072638874837555",
        "ascending_node_longitude": "274.6307136789069",
        "orbital_period": "1369.147656309462",
        "perihelion_distance": ".9825451112371794",
        "perihelion_argument": "104.4170239116863",
        "aphelion_distance": "3.843572514368835",
        "perihelion_time": "2455123.297965294951",
        "mean_anomaly": "8.730053649608715",
        "mean_motion": ".2629373087270806",
        "equinox": "J2000",
        "orbit_class": {
            "orbit_class_type": "APO",
            "orbit_class_description": "Near-Earth asteroid orbits which cross the Earth’s orbit similar to that of 1862 Apollo",
            "orbit_class_range": "a (semi-major axis) > 1.0 AU; q (perihelion) < 1.017 AU"
        }
    },
    "is_sentry_object": false
}